[{"OBJECT_NAME":"STARLINK-4662","OBJECT_ID":"2022-107AQ","EPOCH":"2026-03-19T16:08:05.984736","MEAN_MOTION":15.08841405,"ECCENTRICITY":0.00012602,"INCLINATION":53.2162,"RA_OF_ASC_NODE":219.0805,"ARG_OF_PERICENTER":85.3885,"MEAN_ANOMALY":274.7251,"EPHEMERIS_TYPE":0,"CLASSIFICATION_TYPE":"U","NORAD_CAT_ID":53738,"ELEMENT_SET_NO":999,"REV_AT_EPOCH":19595,"BSTAR":3.5938468e-5,"MEAN_MOTION_DOT":2.84e-6,"MEAN_MOTION_DDOT":0},{"OBJECT_NAME":"STARLINK-4607","OBJECT_ID":"2022-107AS","EPOCH":"2026-03-19T16:24:01.454688","MEAN_MOTION":15.08835044,"ECCENTRICITY":9.639e-5,"INCLINATION":53.2137,"RA_OF_ASC_NODE":219.1491,"ARG_OF_PERICENTER":71.2537,"MEAN_ANOMALY":288.856,"EPHEMERIS_TYPE":0,"CLASSIFICATION_TYPE":"U","NORAD_CAT_ID":53740,"ELEMENT_SET_NO":999,"REV_AT_EPOCH":19610,"BSTAR":-1.3656709e-5,"MEAN_MOTION_DOT":-5.05e-6,"MEAN_MOTION_DDOT":0},{"OBJECT_NAME":"STARLINK-4637","OBJECT_ID":"2022-107AU","EPOCH":"2026-03-19T18:04:42.753504","MEAN_MOTION":15.08837472,"ECCENTRICITY":0.00012449,"INCLINATION":53.2138,"RA_OF_ASC_NODE":218.8759,"ARG_OF_PERICENTER":86.1779,"MEAN_ANOMALY":273.9355,"EPHEMERIS_TYPE":0,"CLASSIFICATION_TYPE":"U","NORAD_CAT_ID":53742,"ELEMENT_SET_NO":999,"REV_AT_EPOCH":19611,"BSTAR":2.4106689e-5,"MEAN_MOTION_DOT":9.6e-7,"MEAN_MOTION_DDOT":0},{"OBJECT_NAME":"STARLINK-4645","OBJECT_ID":"2022-107AV","EPOCH":"2026-03-19T16:50:32.764704","MEAN_MOTION":15.08838835,"ECCENTRICITY":0.00011335,"INCLINATION":53.2168,"RA_OF_ASC_NODE":219.2643,"ARG_OF_PERICENTER":82.0621,"MEAN_ANOMALY":278.05,"EPHEMERIS_TYPE":0,"CLASSIFICATION_TYPE":"U","NORAD_CAT_ID":53743,"ELEMENT_SET_NO":999,"REV_AT_EPOCH":19610,"BSTAR":6.1467516e-5,"MEAN_MOTION_DOT":6.91e-6,"MEAN_MOTION_DDOT":0},{"OBJECT_NAME":"STARLINK-4670","OBJECT_ID":"2022-107AW","EPOCH":"2026-03-19T09:25:20.148384","MEAN_MOTION":15.08820444,"ECCENTRICITY":0.00012656,"INCLINATION":53.2103,"RA_OF_ASC_NODE":220.1829,"ARG_OF_PERICENTER":102.7437,"MEAN_ANOMALY":257.3697,"EPHEMERIS_TYPE":0,"CLASSIFICATION_TYPE":"U","NORAD_CAT_ID":53744,"ELEMENT_SET_NO":999,"REV_AT_EPOCH":19606,"BSTAR":0.00026299312,"MEAN_MOTION_DOT":3.898e-5,"MEAN_MOTION_DDOT":0},{"OBJECT_NAME":"STARLINK-4656","OBJECT_ID":"2022-107AX","EPOCH":"2026-03-19T16:55:51.558240","MEAN_MOTION":15.08836517,"ECCENTRICITY":0.00014573,"INCLINATION":53.2163,"RA_OF_ASC_NODE":219.2882,"ARG_OF_PERICENTER":88.715,"MEAN_ANOMALY":271.4009,"EPHEMERIS_TYPE":0,"CLASSIFICATION_TYPE":"U","NORAD_CAT_ID":53745,"ELEMENT_SET_NO":999,"REV_AT_EPOCH":19610,"BSTAR":1.597633e-5,"MEAN_MOTION_DOT":-3.4e-7,"MEAN_MOTION_DDOT":0},{"OBJECT_NAME":"STARLINK-4589","OBJECT_ID":"2022-107AY","EPOCH":"2026-03-19T08:48:19.773792","MEAN_MOTION":15.08804589,"ECCENTRICITY":6.047e-5,"INCLINATION":53.2098,"RA_OF_ASC_NODE":220.728,"ARG_OF_PERICENTER":341.3075,"MEAN_ANOMALY":18.7894,"EPHEMERIS_TYPE":0,"CLASSIFICATION_TYPE":"U","NORAD_CAT_ID":53746,"ELEMENT_SET_NO":999,"REV_AT_EPOCH":19605,"BSTAR":0.00036550018,"MEAN_MOTION_DOT":5.529e-5,"MEAN_MOTION_DDOT":0},{"OBJECT_NAME":"STARLINK-4612","OBJECT_ID":"2022-107BC","EPOCH":"2026-03-19T17:06:28.178496","MEAN_MOTION":15.08837079,"ECCENTRICITY":0.00012479,"INCLINATION":53.2167,"RA_OF_ASC_NODE":219.3335,"ARG_OF_PERICENTER":80.7648,"MEAN_ANOMALY":279.3485,"EPHEMERIS_TYPE":0,"CLASSIFICATION_TYPE":"U","NORAD_CAT_ID":53750,"ELEMENT_SET_NO":999,"REV_AT_EPOCH":19611,"BSTAR":3.1814664e-5,"MEAN_MOTION_DOT":2.18e-6,"MEAN_MOTION_DDOT":0},{"OBJECT_NAME":"STARLINK-4718","OBJECT_ID":"2022-111A","EPOCH":"2026-03-19T17:40:51.999744","MEAN_MOTION":15.08833117,"ECCENTRICITY":0.00014199,"INCLINATION":53.2174,"RA_OF_ASC_NODE":238.9438,"ARG_OF_PERICENTER":90.5303,"MEAN_ANOMALY":269.5851,"EPHEMERIS_TYPE":0,"CLASSIFICATION_TYPE":"U","NORAD_CAT_ID":53773,"ELEMENT_SET_NO":999,"REV_AT_EPOCH":19536,"BSTAR":-1.7277549e-5,"MEAN_MOTION_DOT":-5.63e-6,"MEAN_MOTION_DDOT":0},{"OBJECT_NAME":"STARLINK-4719","OBJECT_ID":"2022-111B","EPOCH":"2026-03-19T17:35:35.174400","MEAN_MOTION":15.08826139,"ECCENTRICITY":8.515e-5,"INCLINATION":53.2157,"RA_OF_ASC_NODE":238.9202,"ARG_OF_PERICENTER":91.722,"MEAN_ANOMALY":268.3869,"EPHEMERIS_TYPE":0,"CLASSIFICATION_TYPE":"U","NORAD_CAT_ID":53774,"ELEMENT_SET_NO":999,"REV_AT_EPOCH":19522,"BSTAR":-0.00034987131,"MEAN_MOTION_DOT":-5.849e-5,"MEAN_MOTION_DDOT":0},{"OBJECT_NAME":"STARLINK-4722","OBJECT_ID":"2022-111C","EPOCH":"2026-03-19T19:54:44.602560","MEAN_MOTION":15.08817619,"ECCENTRICITY":0.00010235,"INCLINATION":53.2162,"RA_OF_ASC_NODE":228.835,"ARG_OF_PERICENTER":86.4247,"MEAN_ANOMALY":273.6862,"EPHEMERIS_TYPE":0,"CLASSIFICATION_TYPE":"U","NORAD_CAT_ID":53775,"ELEMENT_SET_NO":999,"REV_AT_EPOCH":19522,"BSTAR":0.00041788979,"MEAN_MOTION_DOT":6.365e-5,"MEAN_MOTION_DDOT":0},{"OBJECT_NAME":"STARLINK-4664","OBJECT_ID":"2022-111E","EPOCH":"2026-03-19T16:33:20.738304","MEAN_MOTION":15.08840723,"ECCENTRICITY":0.00014514,"INCLINATION":53.2157,"RA_OF_ASC_NODE":229.3823,"ARG_OF_PERICENTER":98.5098,"MEAN_ANOMALY":261.6058,"EPHEMERIS_TYPE":0,"CLASSIFICATION_TYPE":"U","NORAD_CAT_ID":53777,"ELEMENT_SET_NO":999,"REV_AT_EPOCH":19520,"BSTAR":8.5382737e-5,"MEAN_MOTION_DOT":1.071e-5,"MEAN_MOTION_DDOT":0},{"OBJECT_NAME":"STARLINK-4709","OBJECT_ID":"2022-111F","EPOCH":"2026-03-19T17:12:22.018464","MEAN_MOTION":15.0882329,"ECCENTRICITY":0.00013132,"INCLINATION":53.2162,"RA_OF_ASC_NODE":233.8347,"ARG_OF_PERICENTER":86.3383,"MEAN_ANOMALY":273.7759,"EPHEMERIS_TYPE":0,"CLASSIFICATION_TYPE":"U","NORAD_CAT_ID":53778,"ELEMENT_SET_NO":999,"REV_AT_EPOCH":19514,"BSTAR":-9.8798534e-5,"MEAN_MOTION_DOT":-1.859e-5,"MEAN_MOTION_DDOT":0},{"OBJECT_NAME":"STARLINK-4706","OBJECT_ID":"2022-111G","EPOCH":"2026-03-19T16:28:02.118432","MEAN_MOTION":15.08837694,"ECCENTRICITY":6.475e-5,"INCLINATION":53.2153,"RA_OF_ASC_NODE":229.3588,"ARG_OF_PERICENTER":101.8503,"MEAN_ANOMALY":258.2562,"EPHEMERIS_TYPE":0,"CLASSIFICATION_TYPE":"U","NORAD_CAT_ID":53779,"ELEMENT_SET_NO":999,"REV_AT_EPOCH":19520,"BSTAR":0.00010139447,"MEAN_MOTION_DOT":1.326e-5,"MEAN_MOTION_DDOT":0},{"OBJECT_NAME":"STARLINK-4678","OBJECT_ID":"2022-111H","EPOCH":"2026-03-19T19:49:24.035232","MEAN_MOTION":15.08853407,"ECCENTRICITY":7.392e-5,"INCLINATION":53.2161,"RA_OF_ASC_NODE":228.8088,"ARG_OF_PERICENTER":70.9893,"MEAN_ANOMALY":289.1179,"EPHEMERIS_TYPE":0,"CLASSIFICATION_TYPE":"U","NORAD_CAT_ID":53780,"ELEMENT_SET_NO":999,"REV_AT_EPOCH":19522,"BSTAR":-1.174127e-5,"MEAN_MOTION_DOT":-4.75e-6,"MEAN_MOTION_DDOT":0},{"OBJECT_NAME":"STARLINK-4462","OBJECT_ID":"2022-111J","EPOCH":"2026-03-19T16:12:06.731424","MEAN_MOTION":15.08839326,"ECCENTRICITY":0.00013709,"INCLINATION":53.2172,"RA_OF_ASC_NODE":229.2925,"ARG_OF_PERICENTER":82.9673,"MEAN_ANOMALY":277.1475,"EPHEMERIS_TYPE":0,"CLASSIFICATION_TYPE":"U","NORAD_CAT_ID":53781,"ELEMENT_SET_NO":999,"REV_AT_EPOCH":19520,"BSTAR":1.3070047e-5,"MEAN_MOTION_DOT":-8.0e-7,"MEAN_MOTION_DDOT":0},{"OBJECT_NAME":"STARLINK-4679","OBJECT_ID":"2022-111K","EPOCH":"2026-03-19T22:00:00.999936","MEAN_MOTION":15.15990424,"ECCENTRICITY":0.00011868,"INCLINATION":53.2165,"RA_OF_ASC_NODE":228.0933,"ARG_OF_PERICENTER":106.6272,"MEAN_ANOMALY":187.2747,"EPHEMERIS_TYPE":0,"CLASSIFICATION_TYPE":"U","NORAD_CAT_ID":53782,"ELEMENT_SET_NO":999,"REV_AT_EPOCH":579,"BSTAR":0.0029468249,"MEAN_MOTION_DOT":0.00057405,"MEAN_MOTION_DDOT":0},{"OBJECT_NAME":"STARLINK-4536","OBJECT_ID":"2022-111L","EPOCH":"2026-03-19T17:36:53.585856","MEAN_MOTION":15.08846384,"ECCENTRICITY":0.00014099,"INCLINATION":53.2168,"RA_OF_ASC_NODE":228.9475,"ARG_OF_PERICENTER":4.6577,"MEAN_ANOMALY":355.4428,"EPHEMERIS_TYPE":0,"CLASSIFICATION_TYPE":"U","NORAD_CAT_ID":53783,"ELEMENT_SET_NO":999,"REV_AT_EPOCH":19521,"BSTAR":-1.2092283e-5,"MEAN_MOTION_DOT":-4.8e-6,"MEAN_MOTION_DDOT":0},{"OBJECT_NAME":"STARLINK-4687","OBJECT_ID":"2022-111M","EPOCH":"2026-03-19T16:17:24.724032","MEAN_MOTION":15.08844202,"ECCENTRICITY":0.00012064,"INCLINATION":53.2167,"RA_OF_ASC_NODE":229.3153,"ARG_OF_PERICENTER":90.3699,"MEAN_ANOMALY":269.7431,"EPHEMERIS_TYPE":0,"CLASSIFICATION_TYPE":"U","NORAD_CAT_ID":53784,"ELEMENT_SET_NO":999,"REV_AT_EPOCH":19520,"BSTAR":6.0269694e-5,"MEAN_MOTION_DOT":6.72e-6,"MEAN_MOTION_DDOT":0},{"OBJECT_NAME":"STARLINK-4743","OBJECT_ID":"2022-111Q","EPOCH":"2026-03-19T19:01:39.708480","MEAN_MOTION":15.08838504,"ECCENTRICITY":0.00012753,"INCLINATION":53.2162,"RA_OF_ASC_NODE":228.6076,"ARG_OF_PERICENTER":87.2991,"MEAN_ANOMALY":272.8147,"EPHEMERIS_TYPE":0,"CLASSIFICATION_TYPE":"U","NORAD_CAT_ID":53787,"ELEMENT_SET_NO":999,"REV_AT_EPOCH":19522,"BSTAR":4.3125987e-5,"MEAN_MOTION_DOT":3.99e-6,"MEAN_MOTION_DDOT":0},{"OBJECT_NAME":"STARLINK-4666","OBJECT_ID":"2022-111S","EPOCH":"2026-03-18T17:19:34.647456","MEAN_MOTION":15.08839301,"ECCENTRICITY":9.034e-5,"INCLINATION":53.2105,"RA_OF_ASC_NODE":233.2949,"ARG_OF_PERICENTER":319.2546,"MEAN_ANOMALY":40.8379,"EPHEMERIS_TYPE":0,"CLASSIFICATION_TYPE":"U","NORAD_CAT_ID":53789,"ELEMENT_SET_NO":999,"REV_AT_EPOCH":19505,"BSTAR":0.00020072868,"MEAN_MOTION_DOT":2.908e-5,"MEAN_MOTION_DDOT":0},{"OBJECT_NAME":"STARLINK-4734","OBJECT_ID":"2022-111T","EPOCH":"2026-03-19T15:56:12.115104","MEAN_MOTION":15.08836512,"ECCENTRICITY":0.00014321,"INCLINATION":53.2183,"RA_OF_ASC_NODE":229.2253,"ARG_OF_PERICENTER":92.4747,"MEAN_ANOMALY":267.6409,"EPHEMERIS_TYPE":0,"CLASSIFICATION_TYPE":"U","NORAD_CAT_ID":53790,"ELEMENT_SET_NO":999,"REV_AT_EPOCH":19520,"BSTAR":2.772726e-5,"MEAN_MOTION_DOT":1.53e-6,"MEAN_MOTION_DDOT":0},{"OBJECT_NAME":"STARLINK-4739","OBJECT_ID":"2022-111V","EPOCH":"2026-03-19T17:01:14.828160","MEAN_MOTION":15.08836783,"ECCENTRICITY":0.00014512,"INCLINATION":53.2149,"RA_OF_ASC_NODE":229.4929,"ARG_OF_PERICENTER":88.6025,"MEAN_ANOMALY":271.5134,"EPHEMERIS_TYPE":0,"CLASSIFICATION_TYPE":"U","NORAD_CAT_ID":53792,"ELEMENT_SET_NO":999,"REV_AT_EPOCH":19519,"BSTAR":1.087774e-5,"MEAN_MOTION_DOT":-1.15e-6,"MEAN_MOTION_DDOT":0}]
